[{"OBJECT_NAME":"STARLINK-6321","OBJECT_ID":"2023-099N","EPOCH":"2026-03-09T12:42:52.182432","MEAN_MOTION":15.02533778,"ECCENTRICITY":0.00013518,"INCLINATION":43.0055,"RA_OF_ASC_NODE":249.747,"ARG_OF_PERICENTER":275.5608,"MEAN_ANOMALY":84.508,"EPHEMERIS_TYPE":0,"CLASSIFICATION_TYPE":"U","NORAD_CAT_ID":57340,"ELEMENT_SET_NO":999,"REV_AT_EPOCH":14609,"BSTAR":2.1665481e-5,"MEAN_MOTION_DOT":8.9e-7,"MEAN_MOTION_DDOT":0},{"OBJECT_NAME":"CZ-6A DEB","OBJECT_ID":"2024-140GC","EPOCH":"2026-03-09T13:34:49.028736","MEAN_MOTION":14.75009559,"ECCENTRICITY":0.0165561,"INCLINATION":88.9161,"RA_OF_ASC_NODE":274.3109,"ARG_OF_PERICENTER":173.9196,"MEAN_ANOMALY":186.409,"EPHEMERIS_TYPE":0,"CLASSIFICATION_TYPE":"U","NORAD_CAT_ID":60801,"ELEMENT_SET_NO":999,"REV_AT_EPOCH":8449,"BSTAR":0.00072752,"MEAN_MOTION_DOT":6.141e-5,"MEAN_MOTION_DDOT":0}]
